fram2 (Resilience)
1 01010U 01010A   25038.53765509  .00017037  00000-0  30695-3 0  9992
2 01010  51.6377 229.1795 0003764 286.0749 169.7148 15.49894124495058